CTC2_L_00105001-01
1 29382U 22228RG  26070.40843750  .00000000  00000+0  00000-0 0  9995
2 29382  85.0000   0.0000 0000000   0.0000   0.0000 14.60983543    13
CTC2_L_00105001-02
1 29383U 26435WZ  26070.40843750  .00000000  00000+0  00000-0 0  9990
2 29383  85.0000   0.0000 0000000   0.0000  90.0000 14.60983543    13
CTC2_L_00105001-03
1 29384U 22415EC  26070.40843750  .00000000  00000+0  00000-0 0  9995
2 29384  85.0000   0.0000 0000000   0.0000 180.0000 14.60983543    14
CTC2_L_00105001-04
1 29385U 23257PQ  26070.40843750  .00000000  00000+0  00000-0 0  9991
2 29385  85.0000   0.0000 0000000   0.0000 270.0000 14.60983543    15
CTC2_L_00105002-01
1 29386U 22994TR  26070.40843750  .00000000  00000+0  00000-0 0  9999
2 29386  85.0000  12.0000 0000000   0.0000  12.0000 14.60983543    13
CTC2_L_00105002-02
1 29387U 26747NK  26070.40843750  .00000000  00000+0  00000-0 0  9990
2 29387  85.0000  12.0000 0000000   0.0000 102.0000 14.60983543    14
CTC2_L_00105002-03
1 29388U 22916TB  26070.40843750  .00000000  00000+0  00000-0 0  9995
2 29388  85.0000  12.0000 0000000   0.0000 192.0000 14.60983543    14
CTC2_L_00105002-04
1 29389U 25522NL  26070.40843750  .00000000  00000+0  00000-0 0  9992
2 29389  85.0000  12.0000 0000000   0.0000 282.0000 14.60983543    15
CTC2_L_00105003-01
1 29390U 26193TG  26070.40843750  .00000000  00000+0  00000-0 0  9999
2 29390  85.0000  24.0000 0000000   0.0000  24.0000 14.60983543    14
CTC2_L_00105003-02
1 29391U 23770GJ  26070.40843750  .00000000  00000+0  00000-0 0  9998
2 29391  85.0000  24.0000 0000000   0.0000 114.0000 14.60983543    15
CTC2_L_00105003-03
1 29392U 26207CZ  26070.40843750  .00000000  00000+0  00000-0 0  9997
2 29392  85.0000  24.0000 0000000   0.0000 204.0000 14.60983543    16
CTC2_L_00105003-04
1 29393U 26857BW  26070.40843750  .00000000  00000+0  00000-0 0  9999
2 29393  85.0000  24.0000 0000000   0.0000 294.0000 14.60983543    16
CTC2_L_00105004-01
1 29394U 23449BP  26070.40843750  .00000000  00000+0  00000-0 0  9994
2 29394  85.0000  36.0000 0000000   0.0000  36.0000 14.60983543    14
CTC2_L_00105004-02
1 29395U 23009UR  26070.40843750  .00000000  00000+0  00000-0 0  9997
2 29395  85.0000  36.0000 0000000   0.0000 126.0000 14.60983543    15
CTC2_L_00105004-03
1 29396U 24175VT  26070.40843750  .00000000  00000+0  00000-0 0  9993
2 29396  85.0000  36.0000 0000000   0.0000 216.0000 14.60983543    16
CTC2_L_00105004-04
1 29397U 25254JE  26070.40843750  .00000000  00000+0  00000-0 0  9993
2 29397  85.0000  36.0000 0000000   0.0000 306.0000 14.60983543    17
CTC2_L_00105005-01
1 29398U 22050UV  26070.40843750  .00000000  00000+0  00000-0 0  9995
2 29398  85.0000  48.0000 0000000   0.0000  48.0000 14.60983543    14
CTC2_L_00105005-02
1 29399U 26932IF  26070.40843750  .00000000  00000+0  00000-0 0  9999
2 29399  85.0000  48.0000 0000000   0.0000 138.0000 14.60983543    15
CTC2_L_00105005-03
1 29400U 26466GJ  26070.40843750  .00000000  00000+0  00000-0 0  9994
2 29400  85.0000  48.0000 0000000   0.0000 228.0000 14.60983543    18
CTC2_L_00105005-04
1 29401U 26836K   26070.40843750  .00000000  00000+0  00000-0 0  9996
2 29401  85.0000  48.0000 0000000   0.0000 318.0000 14.60983543    19
CTC2_L_00105006-01
1 29402U 22103BO  26070.40843750  .00000000  00000+0  00000-0 0  9990
2 29402  85.0000  60.0000 0000000   0.0000  60.0000 14.60983543    18
CTC2_L_00105006-02
1 29403U 24565WR  26070.40843750  .00000000  00000+0  00000-0 0  9995
2 29403  85.0000  60.0000 0000000   0.0000 150.0000 14.60983543    19
CTC2_L_00105006-03
1 29404U 24387GL  26070.40843750  .00000000  00000+0  00000-0 0  9998
2 29404  85.0000  60.0000 0000000   0.0000 240.0000 14.60983543    10
CTC2_L_00105006-04
1 29405U 26482HI  26070.40843750  .00000000  00000+0  00000-0 0  9997
2 29405  85.0000  60.0000 0000000   0.0000 330.0000 14.60983543    11
CTC2_L_00105007-01
1 29406U 22666AC  26070.40843750  .00000000  00000+0  00000-0 0  9998
2 29406  85.0000  72.0000 0000000   0.0000  72.0000 14.60983543    18
CTC2_L_00105007-02
1 29407U 23417SF  26070.40843750  .00000000  00000+0  00000-0 0  9994
2 29407  85.0000  72.0000 0000000   0.0000 162.0000 14.60983543    19
CTC2_L_00105007-03
1 29408U 22230ST  26070.40843750  .00000000  00000+0  00000-0 0  9997
2 29408  85.0000  72.0000 0000000   0.0000 252.0000 14.60983543    10
CTC2_L_00105007-04
1 29409U 23434PZ  26070.40843750  .00000000  00000+0  00000-0 0  9995
2 29409  85.0000  72.0000 0000000   0.0000 342.0000 14.60983543    11
CTC2_L_00105008-01
1 29410U 25519RG  26070.40843750  .00000000  00000+0  00000-0 0  9993
2 29410  85.0000  84.0000 0000000   0.0000  84.0000 14.60983543    19
CTC2_L_00105008-02
1 29411U 25650DA  26070.40843750  .00000000  00000+0  00000-0 0  9990
2 29411  85.0000  84.0000 0000000   0.0000 174.0000 14.60983543    10
CTC2_L_00105008-03
1 29412U 25842CF  26070.40843750  .00000000  00000+0  00000-0 0  9994
2 29412  85.0000  84.0000 0000000   0.0000 264.0000 14.60983543    11
CTC2_L_00105008-04
1 29413U 25500TF  26070.40843750  .00000000  00000+0  00000-0 0  9996
2 29413  85.0000  84.0000 0000000   0.0000 354.0000 14.60983543    12
CTC2_L_00105009-01
1 29414U 22091WE  26070.40843750  .00000000  00000+0  00000-0 0  9999
2 29414  85.0000  96.0000 0000000   0.0000  96.0000 14.60983543    19
CTC2_L_00105009-02
1 29415U 26252YR  26070.40843750  .00000000  00000+0  00000-0 0  9993
2 29415  85.0000  96.0000 0000000   0.0000 186.0000 14.60983543    10
CTC2_L_00105009-03
1 29416U 24186QJ  26070.40843750  .00000000  00000+0  00000-0 0  9998
2 29416  85.0000  96.0000 0000000   0.0000 276.0000 14.60983543    11
CTC2_L_00105009-04
1 29417U 25907SF  26070.40843750  .00000000  00000+0  00000-0 0  9991
2 29417  85.0000  96.0000 0000000   0.0000   6.0000 14.60983543    13
CTC2_L_00105010-01
1 29418U 26095ZY  26070.40843750  .00000000  00000+0  00000-0 0  9991
2 29418  85.0000 108.0000 0000000   0.0000 108.0000 14.60983543    11
CTC2_L_00105010-02
1 29419U 23498KG  26070.40843750  .00000000  00000+0  00000-0 0  9996
2 29419  85.0000 108.0000 0000000   0.0000 198.0000 14.60983543    11
CTC2_L_00105010-03
1 29420U 24673NE  26070.40843750  .00000000  00000+0  00000-0 0  9994
2 29420  85.0000 108.0000 0000000   0.0000 288.0000 14.60983543    13
CTC2_L_00105010-04
1 29421U 26307TR  26070.40843750  .00000000  00000+0  00000-0 0  9991
2 29421  85.0000 108.0000 0000000   0.0000  18.0000 14.60983543    15
CTC2_L_00105011-01
1 29422U 26339SS  26070.40843750  .00000000  00000+0  00000-0 0  9997
2 29422  85.0000 120.0000 0000000   0.0000 120.0000 14.60983543    14
CTC2_L_00105011-02
1 29423U 22615OA  26070.40843750  .00000000  00000+0  00000-0 0  9991
2 29423  85.0000 120.0000 0000000   0.0000 210.0000 14.60983543    15
CTC2_L_00105011-03
1 29424U 23338DJ  26070.40843750  .00000000  00000+0  00000-0 0  9995
2 29424  85.0000 120.0000 0000000   0.0000 300.0000 14.60983543    16
CTC2_L_00105011-04
1 29425U 25599SN  26070.40843750  .00000000  00000+0  00000-0 0  9997
2 29425  85.0000 120.0000 0000000   0.0000  30.0000 14.60983543    17
CTC2_L_00105012-01
1 29426U 26371PQ  26070.40843750  .00000000  00000+0  00000-0 0  9997
2 29426  85.0000 132.0000 0000000   0.0000 132.0000 14.60983543    14
CTC2_L_00105012-02
1 29427U 26165JG  26070.40843750  .00000000  00000+0  00000-0 0  9999
2 29427  85.0000 132.0000 0000000   0.0000 222.0000 14.60983543    15
CTC2_L_00105012-03
1 29428U 24725P   26070.40843750  .00000000  00000+0  00000-0 0  9990
2 29428  85.0000 132.0000 0000000   0.0000 312.0000 14.60983543    16
CTC2_L_00105012-04
1 29429U 26255BH  26070.40843750  .00000000  00000+0  00000-0 0  9991
2 29429  85.0000 132.0000 0000000   0.0000  42.0000 14.60983543    17
CTC2_L_00105013-01
1 29430U 24204IA  26070.40843750  .00000000  00000+0  00000-0 0  9995
2 29430  85.0000 144.0000 0000000   0.0000 144.0000 14.60983543    15
CTC2_L_00105013-02
1 29431U 23964LB  26070.40843750  .00000000  00000+0  00000-0 0  9998
2 29431  85.0000 144.0000 0000000   0.0000 234.0000 14.60983543    16
CTC2_L_00105013-03
1 29432U 22052YZ  26070.40843750  .00000000  00000+0  00000-0 0  9996
2 29432  85.0000 144.0000 0000000   0.0000 324.0000 14.60983543    17
CTC2_L_00105013-04
1 29433U 24238KO  26070.40843750  .00000000  00000+0  00000-0 0  9995
2 29433  85.0000 144.0000 0000000   0.0000  54.0000 14.60983543    18
CTC2_L_00105014-01
1 29434U 25387XP  26070.40843750  .00000000  00000+0  00000-0 0  9992
2 29434  85.0000 156.0000 0000000   0.0000 156.0000 14.60983543    15
CTC2_L_00105014-02
1 29435U 24227CA  26070.40843750  .00000000  00000+0  00000-0 0  9995
2 29435  85.0000 156.0000 0000000   0.0000 246.0000 14.60983543    16
CTC2_L_00105014-03
1 29436U 24064BW  26070.40843750  .00000000  00000+0  00000-0 0  9995
2 29436  85.0000 156.0000 0000000   0.0000 336.0000 14.60983543    17
CTC2_L_00105014-04
1 29437U 26009HT  26070.40843750  .00000000  00000+0  00000-0 0  9997
2 29437  85.0000 156.0000 0000000   0.0000  66.0000 14.60983543    18
CTC2_L_00105015-01
1 29438U 25240BB  26070.40843750  .00000000  00000+0  00000-0 0  9994
2 29438  85.0000 168.0000 0000000   0.0000 168.0000 14.60983543    15
CTC2_L_00105015-02
1 29439U 25105X   26070.40843750  .00000000  00000+0  00000-0 0  9995
2 29439  85.0000 168.0000 0000000   0.0000 258.0000 14.60983543    16
CTC2_L_00105015-03
1 29440U 24686XS  26070.40843750  .00000000  00000+0  00000-0 0  9990
2 29440  85.0000 168.0000 0000000   0.0000 348.0000 14.60983543    18
CTC2_L_00105015-04
1 29441U 22120UT  26070.40843750  .00000000  00000+0  00000-0 0  9992
2 29441  85.0000 168.0000 0000000   0.0000  78.0000 14.60983543    19
CTC2_L_00105016-01
1 29442U 26707US  26070.40843750  .00000000  00000+0  00000-0 0  9998
2 29442  85.0000 180.0000 0000000   0.0000 180.0000 14.60983543    18
CTC2_L_00105016-02
1 29443U 23308HM  26070.40843750  .00000000  00000+0  00000-0 0  9993
2 29443  85.0000 180.0000 0000000   0.0000 270.0000 14.60983543    19
